start=new Date('2022-01-16T00:00:00.000Z').valueOf();
sats=[{"COUNTRY_CODE":"US","EPHEMERIS_TYPE":"0","OBJECT_NAME":"STARLINK-3192","RCS_SIZE":"LARGE","MEAN_ANOMALY":"187.9680","GP_ID":"193950097","ELEMENT_SET_NO":"999","CLASSIFICATION_TYPE":"U","MEAN_MOTION":"15.40556937","OBJECT_ID":"2021-115AV","SITE":"AFETR","PERIAPSIS":"442.802","TLE_LINE2":"2 49767  53.2165 110.1381 0002439  24.7507 187.9680 15.40556937  3642","INCLINATION":"53.2165","TIME_SYSTEM":"UTC","FILE":"3274074","MEAN_MOTION_DDOT":"0.0000000000000","PERIOD":"93.473","OBJECT_TYPE":"PAYLOAD","ECCENTRICITY":"0.00024390","SEMIMAJOR_AXIS":"6822.601","NORAD_CAT_ID":"49767","EPOCH":"2022-01-15T22:00:01.999584","LAUNCH_DATE":"2021-12-02","APOAPSIS":"446.131","MEAN_MOTION_DOT":"-0.00027882","RA_OF_ASC_NODE":"110.1381","TLE_LINE1":"1 49767U 21115AV  22015.91668981 -.00027882  00000-0 -66846-3 0  9993","BSTAR":"-0.00066846000000","REV_AT_EPOCH":"364","CENTER_NAME":"EARTH","REF_FRAME":"TEME","DECAY_DATE":null,"MEAN_ELEMENT_THEORY":"SGP4","ARG_OF_PERICENTER":"24.7507"},{"PERIAPSIS":"442.512","TLE_LINE2":"2 49768  53.2160 110.1437 0002901  16.6615 191.8692 15.40548594  3641","INCLINATION":"53.2160","ELEMENT_SET_NO":"999","CLASSIFICATION_TYPE":"U","MEAN_MOTION":"15.40548594","SITE":"AFETR","OBJECT_ID":"2021-115AW","MEAN_ANOMALY":"191.8692","GP_ID":"193948351","COUNTRY_CODE":"US","EPHEMERIS_TYPE":"0","OBJECT_NAME":"STARLINK-3196","RCS_SIZE":"LARGE","CENTER_NAME":"EARTH","DECAY_DATE":null,"REF_FRAME":"TEME","MEAN_ELEMENT_THEORY":"SGP4","ARG_OF_PERICENTER":"16.6615","APOAPSIS":"446.470","LAUNCH_DATE":"2021-12-02","MEAN_MOTION_DOT":"-0.00026423","RA_OF_ASC_NODE":"110.1437","TLE_LINE1":"1 49768U 21115AW  22015.91668981 -.00026423  00000-0 -63298-3 0  9992","BSTAR":"-0.00063298000000","REV_AT_EPOCH":"364","OBJECT_TYPE":"PAYLOAD","ECCENTRICITY":"0.00029010","NORAD_CAT_ID":"49768","SEMIMAJOR_AXIS":"6822.626","EPOCH":"2022-01-15T22:00:01.999584","TIME_SYSTEM":"UTC","FILE":"3274074","MEAN_MOTION_DDOT":"0.0000000000000","PERIOD":"93.473"},{"OBJECT_NAME":"STARLINK-3208","RCS_SIZE":"LARGE","COUNTRY_CODE":"US","EPHEMERIS_TYPE":"0","GP_ID":"193948601","MEAN_ANOMALY":"192.1357","CLASSIFICATION_TYPE":"U","MEAN_MOTION":"15.40559080","OBJECT_ID":"2021-115AX","SITE":"AFETR","ELEMENT_SET_NO":"999","TLE_LINE2":"2 49769  53.2164 110.1438 0002964  17.4314 192.1357 15.40559080  3645","INCLINATION":"53.2164","PERIAPSIS":"442.438","FILE":"3274074","MEAN_MOTION_DDOT":"0.0000000000000","PERIOD":"93.473","TIME_SYSTEM":"UTC","OBJECT_TYPE":"PAYLOAD","ECCENTRICITY":"0.00029640","SEMIMAJOR_AXIS":"6822.595","NORAD_CAT_ID":"49769","EPOCH":"2022-01-15T22:00:01.999584","REV_AT_EPOCH":"364","MEAN_MOTION_DOT":"-0.00029190","LAUNCH_DATE":"2021-12-02","APOAPSIS":"446.482","RA_OF_ASC_NODE":"110.1438","TLE_LINE1":"1 49769U 21115AX  22015.91668981 -.00029190  00000-0 -70030-3 0  9999","BSTAR":"-0.00070030000000","MEAN_ELEMENT_THEORY":"SGP4","ARG_OF_PERICENTER":"17.4314","CENTER_NAME":"EARTH","DECAY_DATE":null,"REF_FRAME":"TEME"},{"OBJECT_ID":"2021-115AY","SITE":"AFETR","MEAN_MOTION":"15.40557398","CLASSIFICATION_TYPE":"U","ELEMENT_SET_NO":"999","INCLINATION":"53.2160","TLE_LINE2":"2 49770  53.2160 110.1458 0003003  16.5345 190.9436 15.40557398  3648","PERIAPSIS":"442.416","RCS_SIZE":"LARGE","OBJECT_NAME":"STARLINK-3191","EPHEMERIS_TYPE":"0","COUNTRY_CODE":"US","GP_ID":"193949852","MEAN_ANOMALY":"190.9436","REV_AT_EPOCH":"364","BSTAR":"-0.00077296000000","TLE_LINE1":"1 49770U 21115AY  22015.91668981 -.00032163  00000-0 -77296-3 0  9996","RA_OF_ASC_NODE":"110.1458","MEAN_MOTION_DOT":"-0.00032163","LAUNCH_DATE":"2021-12-02","APOAPSIS":"446.514","ARG_OF_PERICENTER":"16.5345","MEAN_ELEMENT_THEORY":"SGP4","DECAY_DATE":null,"REF_FRAME":"TEME","CENTER_NAME":"EARTH","PERIOD":"93.473","MEAN_MOTION_DDOT":"0.0000000000000","FILE":"3274074","TIME_SYSTEM":"UTC","EPOCH":"2022-01-15T22:00:01.999584","SEMIMAJOR_AXIS":"6822.600","NORAD_CAT_ID":"49770","ECCENTRICITY":"0.00030030","OBJECT_TYPE":"PAYLOAD"},{"OBJECT_NAME":"STARLINK-3201","RCS_SIZE":"LARGE","EPHEMERIS_TYPE":"0","COUNTRY_CODE":"US","GP_ID":"193949598","MEAN_ANOMALY":"187.4316","MEAN_MOTION":"15.40556244","CLASSIFICATION_TYPE":"U","OBJECT_ID":"2021-115AZ","SITE":"AFETR","ELEMENT_SET_NO":"999","INCLINATION":"53.2164","TLE_LINE2":"2 49771  53.2164 110.1498 0002561  18.9830 187.4316 15.40556244  3647","PERIAPSIS":"442.721","PERIOD":"93.473","MEAN_MOTION_DDOT":"0.0000000000000","FILE":"3274074","TIME_SYSTEM":"UTC","ECCENTRICITY":"0.00025610","OBJECT_TYPE":"PAYLOAD","EPOCH":"2022-01-15T22:00:01.999584","SEMIMAJOR_AXIS":"6822.604","NORAD_CAT_ID":"49771","REV_AT_EPOCH":"364","RA_OF_ASC_NODE":"110.1498","LAUNCH_DATE":"2021-12-02","MEAN_MOTION_DOT":"-0.00028864","APOAPSIS":"446.216","BSTAR":"-0.00069244000000","TLE_LINE1":"1 49771U 21115AZ  22015.91668981 -.00028864  00000-0 -69244-3 0  9994","ARG_OF_PERICENTER":"18.9830","MEAN_ELEMENT_THEORY":"SGP4","DECAY_DATE":null,"REF_FRAME":"TEME","CENTER_NAME":"EARTH"},{"SEMIMAJOR_AXIS":"6727.726","NORAD_CAT_ID":"50156","EPOCH":"2022-01-15T22:00:01.999584","OBJECT_TYPE":"PAYLOAD","ECCENTRICITY":"0.00011430","FILE":"3274074","MEAN_MOTION_DDOT":"0.0000000000000","PERIOD":"91.530","TIME_SYSTEM":"UTC","MEAN_ELEMENT_THEORY":"SGP4","ARG_OF_PERICENTER":"92.0579","CENTER_NAME":"EARTH","REF_FRAME":"TEME","DECAY_DATE":null,"REV_AT_EPOCH":"371","TLE_LINE1":"1 50156U 21125A   22015.91668981 -.00010719  00000-0 -71865-4 0  9997","BSTAR":"-0.00007186500000","LAUNCH_DATE":"2021-12-18","MEAN_MOTION_DOT":"-0.00010719","APOAPSIS":"350.360","RA_OF_ASC_NODE":"225.1203","GP_ID":"193949397","MEAN_ANOMALY":"33.4074","RCS_SIZE":"LARGE","OBJECT_NAME":"STARLINK-3317","COUNTRY_CODE":"US","EPHEMERIS_TYPE":"0","TLE_LINE2":"2 50156  53.2177 225.1203 0001143  92.0579  33.4074 15.73259495  3712","INCLINATION":"53.2177","PERIAPSIS":"348.822","OBJECT_ID":"2021-125A","SITE":"AFWTR","CLASSIFICATION_TYPE":"U","MEAN_MOTION":"15.73259495","ELEMENT_SET_NO":"999"},{"PERIOD":"91.569","FILE":"3274074","MEAN_MOTION_DDOT":"0.0000000000000","TIME_SYSTEM":"UTC","ECCENTRICITY":"0.00011680","OBJECT_TYPE":"PAYLOAD","EPOCH":"2022-01-15T22:00:01.999584","SEMIMAJOR_AXIS":"6729.674","NORAD_CAT_ID":"50157","REV_AT_EPOCH":"371","RA_OF_ASC_NODE":"225.1029","LAUNCH_DATE":"2021-12-18","MEAN_MOTION_DOT":"-0.00662427","APOAPSIS":"352.325","BSTAR":"-0.00523730000000","TLE_LINE1":"1 50157U 21125B   22015.91668981 -.00662427  00000-0 -52373-2 0  9998","ARG_OF_PERICENTER":"74.6981","MEAN_ELEMENT_THEORY":"SGP4","DECAY_DATE":null,"REF_FRAME":"TEME","CENTER_NAME":"EARTH","OBJECT_NAME":"STARLINK-3313","RCS_SIZE":"LARGE","EPHEMERIS_TYPE":"0","COUNTRY_CODE":"US","GP_ID":"193950142","MEAN_ANOMALY":"50.8129","MEAN_MOTION":"15.72576213","CLASSIFICATION_TYPE":"U","SITE":"AFWTR","OBJECT_ID":"2021-125B","ELEMENT_SET_NO":"999","INCLINATION":"53.2176","TLE_LINE2":"2 50157  53.2176 225.1029 0001168  74.6981  50.8129 15.72576213  3711","PERIAPSIS":"350.753"},{"MEAN_ANOMALY":"67.1287","GP_ID":"193920126","EPHEMERIS_TYPE":"0","COUNTRY_CODE":"US","OBJECT_NAME":"STARLINK-3309","RCS_SIZE":"LARGE","PERIAPSIS":"349.712","INCLINATION":"53.2176","TLE_LINE2":"2 50158  53.2176 225.0983 0001252  61.6011  67.1287 15.72921497  4696","ELEMENT_SET_NO":"999","MEAN_MOTION":"15.72921497","CLASSIFICATION_TYPE":"U","SITE":"AFWTR","OBJECT_ID":"2021-125C","ECCENTRICITY":"0.00012520","OBJECT_TYPE":"PAYLOAD","EPOCH":"2022-01-15T22:00:01.999584","NORAD_CAT_ID":"50158","SEMIMAJOR_AXIS":"6728.689","TIME_SYSTEM":"UTC","PERIOD":"91.549","MEAN_MOTION_DDOT":"0.0000000000000","FILE":"3273841","REF_FRAME":"TEME","DECAY_DATE":null,"CENTER_NAME":"EARTH","ARG_OF_PERICENTER":"61.6011","MEAN_ELEMENT_THEORY":"SGP4","RA_OF_ASC_NODE":"225.0983","MEAN_MOTION_DOT":"-0.00662262","LAUNCH_DATE":"2021-12-18","APOAPSIS":"351.397","BSTAR":"-0.00515870000000","TLE_LINE1":"1 50158U 21125C   22015.91668981 -.00662262  00000-0 -51587-2 0  9992","REV_AT_EPOCH":"469"},{"EPHEMERIS_TYPE":"0","COUNTRY_CODE":"US","OBJECT_NAME":"STARLINK-3297","RCS_SIZE":"LARGE","MEAN_ANOMALY":"54.4985","GP_ID":"193948646","ELEMENT_SET_NO":"999","MEAN_MOTION":"15.73044737","CLASSIFICATION_TYPE":"U","SITE":"AFWTR","OBJECT_ID":"2021-125D","PERIAPSIS":"349.333","INCLINATION":"53.2177","TLE_LINE2":"2 50159  53.2177 225.0974 0001293  75.2313  54.4985 15.73044737  3719","TIME_SYSTEM":"UTC","PERIOD":"91.542","MEAN_MOTION_DDOT":"0.0000000000000","FILE":"3274074","ECCENTRICITY":"0.00012930","OBJECT_TYPE":"PAYLOAD","EPOCH":"2022-01-15T22:00:01.999584","NORAD_CAT_ID":"50159","SEMIMAJOR_AXIS":"6728.338","RA_OF_ASC_NODE":"225.0974","LAUNCH_DATE":"2021-12-18","MEAN_MOTION_DOT":"-0.00672336","APOAPSIS":"351.073","BSTAR":"-0.00521570000000","TLE_LINE1":"1 50159U 21125D   22015.91668981 -.00672336  00000-0 -52157-2 0  9990","REV_AT_EPOCH":"371","REF_FRAME":"TEME","DECAY_DATE":null,"CENTER_NAME":"EARTH","ARG_OF_PERICENTER":"75.2313","MEAN_ELEMENT_THEORY":"SGP4"},{"ARG_OF_PERICENTER":"71.7474","MEAN_ELEMENT_THEORY":"SGP4","DECAY_DATE":null,"REF_FRAME":"TEME","CENTER_NAME":"EARTH","REV_AT_EPOCH":"729","BSTAR":"-0.00518540000000","TLE_LINE1":"1 50160U 21125E   22015.91668981 -.00662380  00000-0 -51854-2 0  9993","RA_OF_ASC_NODE":"225.0999","APOAPSIS":"351.671","LAUNCH_DATE":"2021-12-18","MEAN_MOTION_DOT":"-0.00662380","EPOCH":"2022-01-15T22:00:01.999584","NORAD_CAT_ID":"50160","SEMIMAJOR_AXIS":"6729.017","ECCENTRICITY":"0.00011720","OBJECT_TYPE":"PAYLOAD","PERIOD":"91.556","FILE":"3273894","MEAN_MOTION_DDOT":"0.0000000000000","TIME_SYSTEM":"UTC","INCLINATION":"53.2176","TLE_LINE2":"2 50160  53.2176 225.0999 0001172  71.7474  55.9435 15.72806442  7293","PERIAPSIS":"350.094","OBJECT_ID":"2021-125E","SITE":"AFWTR","MEAN_MOTION":"15.72806442","CLASSIFICATION_TYPE":"U","ELEMENT_SET_NO":"999","GP_ID":"193922012","MEAN_ANOMALY":"55.9435","RCS_SIZE":"LARGE","OBJECT_NAME":"STARLINK-3288","EPHEMERIS_TYPE":"0","COUNTRY_CODE":"US"}];
